{"type":"FeatureCollection","features":[{"type":"Feature","properties":{"label":"แปลงข้อมูลเปิด 2833","origin":"imported"},"geometry":{"type":"Polygon","coordinates":[[[101.16820929120094,16.316074823755354],[101.16820929188721,16.316074886087478],[101.16719030506324,16.316180328306267],[101.16708321118895,16.31575788206612],[101.16706262463092,16.31566509947218],[101.16819654779066,16.315565816988666],[101.16820929120094,16.316074823755354]]]}},{"type":"Feature","properties":{"label":"แปลงข้อมูลเปิด 2883","origin":"imported"},"geometry":{"type":"Polygon","coordinates":[[[101.16819654779066,16.315565816988666],[101.16706262463092,16.31566509947218],[101.16694836068737,16.3152428567591],[101.16694833617761,16.315242754918827],[101.16694832931131,16.31524272607833],[101.1677005171998,16.315149806083113],[101.16820501283298,16.315111014555747],[101.16819654779066,16.315565816988666]]]}},{"type":"Feature","properties":{"label":"แปลงข้อมูลเปิด 2884","origin":"imported"},"geometry":{"type":"Polygon","coordinates":[[[101.1682171451609,16.316591528538165],[101.16821113426168,16.316620093713247],[101.16727185723427,16.31669618398865],[101.16727192423954,16.316531660201107],[101.16719030506324,16.316180328306267],[101.16820929188721,16.316074886087478],[101.1682171451609,16.316591528538165]]]}},{"type":"Feature","properties":{"label":"แปลงข้อมูลเปิด 2829","origin":"imported"},"geometry":{"type":"Polygon","coordinates":[[[101.168601726482,16.316657686585962],[101.16856961405269,16.316655666448447],[101.1682171451609,16.316591528538165],[101.16820929188721,16.316074886087478],[101.16820929120094,16.316074823755354],[101.16819654779066,16.315565816988666],[101.16820501283298,16.315111014555747],[101.16869711172967,16.31505657733766],[101.168601726482,16.316657686585962]]]}},{"type":"Feature","properties":{"label":"แปลงข้อมูลเปิด 2704","origin":"imported"},"geometry":{"type":"Polygon","coordinates":[[[101.168835347815,16.314568641248037],[101.16895644926088,16.31503096597739],[101.16869711172967,16.31505657733766],[101.16820501283298,16.315111014555747],[101.1677005171998,16.315149806083113],[101.16694832931131,16.31524272607833],[101.16694154103787,16.315218936975427],[101.166873212231,16.31497935288423],[101.16687320349382,16.31497932406293],[101.1688396117643,16.314585091136426],[101.16883531184979,16.3145686036718],[101.168835347815,16.314568641248037]]]}},{"type":"Feature","properties":{"label":"แปลงข้อมูลเปิด 2866","origin":"imported"},"geometry":{"type":"Polygon","coordinates":[[[101.16822651628546,16.317152791125356],[101.16729814905892,16.317257418699572],[101.16727187415957,16.316978246125284],[101.16727186638623,16.316856149906233],[101.16727185723427,16.31669618398865],[101.16821113426168,16.316620093713247],[101.16822651628546,16.317152791125356]]]}},{"type":"Feature","properties":{"label":"แปลงข้อมูลเปิด 2767","origin":"imported"},"geometry":{"type":"Polygon","coordinates":[[[101.1691034498326,16.315033070046844],[101.16921438636804,16.31506508778379],[101.16894977604473,16.31671852549029],[101.16893955770144,16.31671682622367],[101.16885220287051,16.316702274175814],[101.168601726482,16.316657686585962],[101.16869711172967,16.31505657733766],[101.16895644926088,16.31503096597739],[101.1691034498326,16.315033070046844]]]}},{"type":"Feature","properties":{"label":"แปลงข้อมูลเปิด 2702","origin":"imported"},"geometry":{"type":"Polygon","coordinates":[[[101.16883531184979,16.3145686036718],[101.1688396117643,16.314585091136426],[101.16687320349382,16.31497932406293],[101.16687233040463,16.314976839452097],[101.16677090796493,16.314686566124628],[101.16854781984416,16.314283720558457],[101.16883531184979,16.3145686036718]]]}},{"type":"Feature","properties":{"label":"แปลงข้อมูลเปิด 2703","origin":"imported"},"geometry":{"type":"Polygon","coordinates":[[[101.16825457765489,16.313993131872355],[101.16854781984416,16.314283720558457],[101.16677090796493,16.314686566124628],[101.16670340890624,16.314385785193053],[101.16670081485796,16.314376710277607],[101.1682545454715,16.313993097871037],[101.16825457765489,16.313993131872355]]]}},{"type":"Feature","properties":{"label":"แปลงข้อมูลเปิด 2882","origin":"imported"},"geometry":{"type":"Polygon","coordinates":[[[101.16960632629355,16.315467079049554],[101.16951372533799,16.31599638523215],[101.1694508289616,16.31638900629207],[101.16941555262856,16.316674554860622],[101.16941233097994,16.316685297639737],[101.16940080296978,16.316723695007635],[101.16940059904786,16.31672437741225],[101.16938967996104,16.316803271792892],[101.16938548628147,16.316830238152487],[101.16938403905209,16.31682982297076],[101.16906409002357,16.316737971114115],[101.16906403467173,16.31673795722723],[101.16894982572404,16.316718534014683],[101.16894977604473,16.31671852549029],[101.16921438636804,16.31506508778379],[101.16960632629355,16.315467079049554]]]}},{"type":"Feature","properties":{"label":"แปลงข้อมูลเปิด 2820","origin":"imported"},"geometry":{"type":"Polygon","coordinates":[[[101.16824008044075,16.31773193629696],[101.16736439903053,16.317804637921547],[101.16730704605449,16.317359816642153],[101.16729814905892,16.317257418699572],[101.16822651628546,16.317152791125356],[101.16824008044075,16.31773193629696]]]}},{"type":"Feature","properties":{"label":"แปลงข้อมูลเปิด 589","origin":"imported"},"geometry":{"type":"Polygon","coordinates":[[[101.16839656965699,16.319517377899682],[101.1682815185427,16.31952128251029],[101.16819143831657,16.319519585723565],[101.16819121161161,16.319519559140726],[101.16805163500464,16.319517773385556],[101.16767277707409,16.319512925038005],[101.16760784840953,16.319512093686686],[101.16758825096032,16.319509827515063],[101.16757539647607,16.31939854581679],[101.167567386002,16.319329202082972],[101.16742588673898,16.31872949983493],[101.16742196324546,16.31871287295997],[101.16742199940096,16.31871284277443],[101.1672953603264,16.317754196782115],[101.16724007219521,16.317335627985983],[101.16721824964075,16.31713907239136],[101.16721828703973,16.31713907020059],[101.16720920236753,16.316914541731187],[101.16722050559889,16.31659724926561],[101.16722416392892,16.316494832673197],[101.16704230856784,16.315756143416113],[101.16697215460646,16.315427925433656],[101.16691271050895,16.31514980135904],[101.16684431092682,16.314920019691126],[101.1667551123963,16.314712720029046],[101.16674501487904,16.314689253072004],[101.16669791177881,16.314478078361777],[101.16669797811689,16.314478070453458],[101.16669790392743,16.314478045014035],[101.16669782410534,16.31447801782547],[101.16664104537195,16.314458518962315],[101.16661710176732,16.314450296400622],[101.16655498340612,16.314192627848282],[101.1665587725738,16.313879742648883],[101.16670081485796,16.314376710277607],[101.16670340890624,16.314385785193053],[101.16677090796493,16.314686566124628],[101.16687233040463,16.314976839452097],[101.16687320349382,16.31497932406293],[101.166873212231,16.31497935288423],[101.16694154103787,16.315218936975427],[101.16694832931131,16.31524272607833],[101.16694833617761,16.315242754918827],[101.16694836068737,16.3152428567591],[101.16706262463092,16.31566509947218],[101.16708321118895,16.31575788206612],[101.16719030506324,16.316180328306267],[101.16727192423954,16.316531660201107],[101.16727185723427,16.31669618398865],[101.16727186638623,16.316856149906233],[101.16727187415957,16.316978246125284],[101.16729814905892,16.317257418699572],[101.16730704605449,16.317359816642153],[101.16736439903053,16.317804637921547],[101.16745840980482,16.318430866638092],[101.16750814347513,16.318742857935298],[101.1676516211631,16.319418137333265],[101.16765977833907,16.319456528604007],[101.16768142801904,16.319459094430293],[101.16772896643296,16.319464727343913],[101.16773490903131,16.319464789202684],[101.16812507330987,16.31946886181526],[101.16828554684339,16.319470534111147],[101.16840372413941,16.319466072481458],[101.16856951622368,16.31945523656484],[101.16870679952306,16.31944461204079],[101.16886556859525,16.3194361148279],[101.16886852762043,16.319493167202793],[101.16886862793568,16.319493440825877],[101.16862840470063,16.319502871370297],[101.16839656965699,16.319517377899682]]]}},{"type":"Feature","properties":{"label":"แปลงข้อมูลเปิด 2584","origin":"imported"},"geometry":{"type":"Polygon","coordinates":[[[101.1679781750614,16.313522738071946],[101.167978194208,16.313522777627945],[101.16818511612756,16.3139067155786],[101.16818514086708,16.313906753270214],[101.1682545454715,16.313993097871037],[101.16670081485796,16.314376710277607],[101.1665587725738,16.313879742648883],[101.16655124731605,16.313853413302784],[101.16723208722686,16.31366254082355],[101.1672321647205,16.313662526476328],[101.16797815311841,16.313522699448143],[101.1679781750614,16.313522738071946]]]}},{"type":"Feature","properties":{"label":"แปลงข้อมูลเปิด 3819","origin":"imported"},"geometry":{"type":"Polygon","coordinates":[[[101.1705744393993,16.316294441471065],[101.17057448366387,16.316294298268602],[101.17057440121401,16.316294372296753],[101.17066431453324,16.31600623654507],[101.17022866215494,16.315676277498866],[101.17022863193145,16.315676251608966],[101.17015719435284,16.315517622583723],[101.17004811434599,16.31531067992414],[101.16960632629355,16.315467079049554],[101.16921438636804,16.31506508778379],[101.1691034498326,16.315033070046844],[101.16895644926088,16.31503096597739],[101.168835347815,16.314568641248037],[101.16883531184979,16.3145686036718],[101.16854781984416,16.314283720558457],[101.16825457765489,16.313993131872355],[101.1682545454715,16.313993097871037],[101.16818514086708,16.313906753270214],[101.16818511612756,16.3139067155786],[101.167978194208,16.313522777627945],[101.1679781750614,16.313522738071946],[101.16797815311841,16.313522699448143],[101.16789340219876,16.313380875862055],[101.1678304468794,16.313275583350677],[101.16778760022814,16.31313354280759],[101.16767695945576,16.31276690142269],[101.16767693615992,16.31276682486709],[101.16744416225823,16.312015974316232],[101.16723796311395,16.311923149280922],[101.16701111179425,16.31181535222958],[101.16698594426227,16.311813202689137],[101.16652838139926,16.311774121607066],[101.16622115034127,16.311576018005958],[101.16652838054479,16.311774043917612],[101.1665264678943,16.311600140625387],[101.1667571873584,16.311618385741617],[101.16675724542556,16.311618391470233],[101.16736362857046,16.311738913205783],[101.16736368649737,16.31173899121304],[101.16747009466401,16.3118705671431],[101.16772436428275,16.31241990556821],[101.16781120759298,16.312850939145942],[101.16796948859586,16.31327626396831],[101.16806767601395,16.313231356643787],[101.16806770178823,16.31323140335948],[101.16825804636058,16.313543448237784],[101.16875187215196,16.31400500379272],[101.16900353022687,16.31371621040783],[101.16912425751549,16.313711356663127],[101.16912429151019,16.31371138522491],[101.16935442799385,16.313876517762658],[101.16940701506883,16.313936330027346],[101.16883089818296,16.314190737254087],[101.16912665004612,16.314394626127267],[101.16932852034601,16.31453377251122],[101.16937362319231,16.314560552327176],[101.16943234417595,16.31459540655349],[101.16943242999915,16.314595468914487],[101.16942234607927,16.314741262682848],[101.16945690770532,16.31476504464173],[101.16950644008496,16.31479908885957],[101.16993829737436,16.314722736179156],[101.17005787995161,16.3148092339542],[101.17005788835102,16.314809316986725],[101.1700963588557,16.315314938209696],[101.17010779351706,16.31533821684802],[101.17010939840911,16.315341479032135],[101.17049401679549,16.3153079821426],[101.17056568542023,16.31538476375146],[101.17056576022767,16.315384845197904],[101.1704490314399,16.31574239870265],[101.17062352632784,16.31590402487802],[101.1709069698396,16.315901116673697],[101.17093837333677,16.315969112956193],[101.1705744393993,16.316294441471065]]]}},{"type":"Feature","properties":{"label":"แปลงข้อมูลเปิด 2803","origin":"imported"},"geometry":{"type":"Polygon","coordinates":[[[101.16856961405269,16.316655666448447],[101.16840372413941,16.319466072481458],[101.16828554684339,16.319470534111147],[101.16825199801825,16.318376648420408],[101.16824008044075,16.31773193629696],[101.16822651628546,16.317152791125356],[101.16821113426168,16.316620093713247],[101.1682171451609,16.316591528538165],[101.16856961405269,16.316655666448447]]]}},{"type":"Feature","properties":{"label":"แปลงข้อมูลเปิด 2827","origin":"imported"},"geometry":{"type":"Polygon","coordinates":[[[101.17015719435284,16.315517622583723],[101.16993773750976,16.31611598597943],[101.16951372533799,16.31599638523215],[101.16960632629355,16.315467079049554],[101.17004811434599,16.31531067992414],[101.17015719435284,16.315517622583723]]]}},{"type":"Feature","properties":{"label":"แปลงข้อมูลเปิด 600","origin":"imported"},"geometry":{"type":"Polygon","coordinates":[[[101.1665587725738,16.313879742648883],[101.16655498340612,16.314192627848282],[101.16652712868192,16.314070732289792],[101.16647065441441,16.313935415667622],[101.16643831796327,16.31381806803581],[101.16648251191054,16.313844340170192],[101.16651171802071,16.313861668124986],[101.16655124731605,16.313853413302784],[101.1665587725738,16.313879742648883]]]}},{"type":"Feature","properties":{"label":"แปลงข้อมูลเปิด 2610","origin":"imported"},"geometry":{"type":"Polygon","coordinates":[[[101.16825199801825,16.318376648420408],[101.16745840980482,16.318430866638092],[101.16736439903053,16.317804637921547],[101.16824008044075,16.31773193629696],[101.16825199801825,16.318376648420408]]]}},{"type":"Feature","properties":{"label":"แปลงข้อมูลเปิด 2819","origin":"imported"},"geometry":{"type":"Polygon","coordinates":[[[101.16941703179371,16.313951419818572],[101.1693914553101,16.31439826479926],[101.16932852034601,16.31453377251122],[101.16912665004612,16.314394626127267],[101.16883089818296,16.314190737254087],[101.16940701506883,16.313936330027346],[101.16941703179371,16.313951419818572]]]}},{"type":"Feature","properties":{"label":"แปลงข้อมูลเปิด 2609","origin":"imported"},"geometry":{"type":"Polygon","coordinates":[[[101.168601726482,16.316657686585962],[101.16885220287051,16.316702274175814],[101.16856951622368,16.31945523656484],[101.16840372413941,16.319466072481458],[101.16856961405269,16.316655666448447],[101.168601726482,16.316657686585962]]]}},{"type":"Feature","properties":{"label":"แปลงข้อมูลเปิด 2828","origin":"imported"},"geometry":{"type":"Polygon","coordinates":[[[101.16993773750976,16.31611598597943],[101.17020838973868,16.31619010946888],[101.1705744393993,16.316294441471065],[101.17040791737014,16.316606932402355],[101.1694508289616,16.31638900629207],[101.16951372533799,16.31599638523215],[101.16993773750976,16.31611598597943]]]}},{"type":"Feature","properties":{"label":"แปลงข้อมูลเปิด 2881","origin":"imported"},"geometry":{"type":"Polygon","coordinates":[[[101.16941555262856,16.316674554860622],[101.1694508289616,16.31638900629207],[101.17040791737014,16.316606932402355],[101.17034721364897,16.316707267245935],[101.17038988998063,16.316727909172876],[101.17027861850339,16.316895904752542],[101.16941555262856,16.316674554860622]]]}},{"type":"Feature","properties":{"label":"แปลงข้อมูลเปิด 3002","origin":"imported"},"geometry":{"type":"Polygon","coordinates":[[[101.16947187922946,16.314099819867472],[101.16943242999915,16.314595468914487],[101.16943234417595,16.31459540655349],[101.16937362319231,16.314560552327176],[101.16932852034601,16.31453377251122],[101.1693914553101,16.31439826479926],[101.16941703179371,16.313951419818572],[101.16947187922946,16.314099819867472]]]}},{"type":"Feature","properties":{"label":"แปลงข้อมูลเปิด 3025","origin":"imported"},"geometry":{"type":"Polygon","coordinates":[[[101.16955248329235,16.31682147543413],[101.16924559481356,16.318365215172566],[101.1690645833335,16.318333468513384],[101.16906459135473,16.31833343229235],[101.1690646518622,16.31833314978948],[101.16938548628147,16.316830238152487],[101.16938967996104,16.316803271792892],[101.16955248329235,16.31682147543413]]]}},{"type":"Feature","properties":{"label":"แปลงข้อมูลเปิด 2879","origin":"imported"},"geometry":{"type":"Polygon","coordinates":[[[101.17022863193145,16.315676251608966],[101.17022866215494,16.315676277498866],[101.17020838973868,16.31619010946888],[101.16993773750976,16.31611598597943],[101.17015719435284,16.315517622583723],[101.17022863193145,16.315676251608966]]]}},{"type":"Feature","properties":{"label":"แปลงข้อมูลเปิด 2599","origin":"imported"},"geometry":{"type":"Polygon","coordinates":[[[101.16893955770144,16.31671682622367],[101.16894977604473,16.31671852549029],[101.16894982572404,16.316718534014683],[101.16906403467173,16.31673795722723],[101.16870679952306,16.31944461204079],[101.16856951622368,16.31945523656484],[101.16885220287051,16.316702274175814],[101.16893955770144,16.31671682622367]]]}},{"type":"Feature","properties":{"label":"แปลงข้อมูลเปิด 614","origin":"imported"},"geometry":{"type":"Polygon","coordinates":[[[101.16906409002357,16.316737971114115],[101.16938403905209,16.31682982297076],[101.16938548628147,16.316830238152487],[101.1690646518622,16.31833314978948],[101.16906459135473,16.31833343229235],[101.1690645833335,16.318333468513384],[101.16890331442823,16.31876095383017],[101.16886556859525,16.3194361148279],[101.16870679952306,16.31944461204079],[101.16906403467173,16.31673795722723],[101.16906409002357,16.316737971114115]]]}},{"type":"Feature","properties":{"label":"แปลงข้อมูลเปิด 209","origin":"imported"},"geometry":{"type":"Polygon","coordinates":[[[101.16722416392892,16.316494832673197],[101.16711038769246,16.316502893771663],[101.16658079353553,16.316540450782973],[101.16560197644293,16.31661861253774],[101.163269203263,16.316804872672776],[101.1632409070738,16.31665935443295],[101.16314787910886,16.316183343617418],[101.16313821246199,16.31614694791561],[101.16605853570186,16.31586402034378],[101.16657280337523,16.31581419217406],[101.16701479823209,16.31575955442179],[101.16704230856784,16.315756143416113],[101.16722416392892,16.316494832673197]]]}},{"type":"Feature","properties":{"label":"แปลงข้อมูลเปิด 43","origin":"imported"},"geometry":{"type":"Polygon","coordinates":[[[101.16697215460646,16.315427925433656],[101.16704230856784,16.315756143416113],[101.16701479823209,16.31575955442179],[101.16657280337523,16.31581419217406],[101.16605853570186,16.31586402034378],[101.16313821246199,16.31614694791561],[101.16312585230553,16.316084574355227],[101.16310868641247,16.315961412230862],[101.16307167995411,16.315819690084265],[101.16306281274613,16.31568273641815],[101.16305028923404,16.315643388520943],[101.1664531917187,16.31521173784485],[101.16656601719227,16.315197424099146],[101.16691271050895,16.31514980135904],[101.16697215460646,16.315427925433656]]]}},{"type":"Feature","properties":{"label":"แปลงข้อมูลเปิด 3026","origin":"imported"},"geometry":{"type":"Polygon","coordinates":[[[101.16971547273606,16.31683958668736],[101.16942276110814,16.31839628382512],[101.16924559481356,16.318365215172566],[101.16955248329235,16.31682147543413],[101.16971547273606,16.31683958668736]]]}},{"type":"Feature","properties":{"label":"แปลงข้อมูลเปิด 44","origin":"imported"},"geometry":{"type":"Polygon","coordinates":[[[101.16722050559889,16.31659724926561],[101.16720920236753,16.316914541731187],[101.16720914543309,16.31691455406057],[101.16716367446355,16.316917264036338],[101.16658531975804,16.316951841443498],[101.16533928180286,16.317052787201934],[101.16333352885314,16.317215263940216],[101.16331748441463,16.317095339253747],[101.163269203263,16.316804872672776],[101.16560197644293,16.31661861253774],[101.16658079353553,16.316540450782973],[101.16711038769246,16.316502893771663],[101.16722416392892,16.316494832673197],[101.16722050559889,16.31659724926561]]]}},{"type":"Feature","properties":{"label":"แปลงข้อมูลเปิด 4","origin":"imported"},"geometry":{"type":"Polygon","coordinates":[[[101.16721828703973,16.31713907020059],[101.16721824964075,16.31713907239136],[101.16719242562368,16.31714083718316],[101.16658785376514,16.317182153465215],[101.16520221173862,16.317279330552765],[101.16337073820519,16.317407761545123],[101.16337073131943,16.317407730897738],[101.1633429764629,16.317291153383476],[101.16333352885314,16.317215263940216],[101.16533928180286,16.317052787201934],[101.16658531975804,16.316951841443498],[101.16716367446355,16.316917264036338],[101.16720914543309,16.31691455406057],[101.16720920236753,16.316914541731187],[101.16721828703973,16.31713907020059]]]}},{"type":"Feature","properties":{"label":"แปลงข้อมูลเปิด 2597","origin":"imported"},"geometry":{"type":"Polygon","coordinates":[[[101.16986617676979,16.316880501033832],[101.16985321683708,16.31694745902434],[101.1697659304527,16.317397971827518],[101.16968805315756,16.317799939607028],[101.16962823634618,16.318108701003137],[101.16958573542426,16.31832807810142],[101.16956626116927,16.318428599004545],[101.16942276110814,16.31839628382512],[101.16971547273606,16.31683958668736],[101.16986617676979,16.316880501033832]]]}},{"type":"Feature","properties":{"label":"แปลงข้อมูลเปิด 3807","origin":"imported"},"geometry":{"type":"Polygon","coordinates":[[[101.16652066525562,16.311072536269453],[101.16666078945516,16.31108492298636],[101.16683253014241,16.31111743346381],[101.16687006953941,16.31112453993021],[101.16698519977133,16.311161175294927],[101.16711007900061,16.31119683963066],[101.1673530530287,16.311130930555116],[101.16749189009474,16.311112210897196],[101.16765744706981,16.311313673728897],[101.16765552185603,16.31152487616912],[101.16768076348889,16.31186677630783],[101.16775744177772,16.311952769179502],[101.16784278712842,16.311917456729965],[101.16789331222344,16.311834290836394],[101.16798178780476,16.311685662324283],[101.16804977687812,16.31163124345123],[101.16821751222454,16.31158038127554],[101.16836074149258,16.311669057080554],[101.1683759530163,16.311734451939188],[101.1682909412494,16.312011002998],[101.16832852630026,16.312179810247766],[101.16846105790526,16.31236586565499],[101.16852641550857,16.31242967143631],[101.16877089915053,16.31268917728569],[101.16874290438717,16.31280089917186],[101.16860112205646,16.312906708026652],[101.16845256627028,16.312901543997842],[101.16828027608997,16.3127574851609],[101.16818830304678,16.312849404789848],[101.16813665701106,16.313040250186734],[101.16820962347445,16.313229313141388],[101.16822959831315,16.313269574347842],[101.16824975209808,16.31331019781132],[101.16834423482115,16.313443090837357],[101.16874091026898,16.313853520151458],[101.168989825656,16.313570041142267],[101.16917874753314,16.31356050816576],[101.16943339188343,16.313754699159993],[101.16957788439794,16.3140854246863],[101.16956287687375,16.31468772973612],[101.1699663397548,16.314615812012452],[101.17008856195338,16.314689275462626],[101.17017966389426,16.314851740981016],[101.17019548719395,16.315165801830396],[101.17058230867825,16.31507944030811],[101.17063040887417,16.315136905022218],[101.17071292073787,16.315254009712458],[101.17076559232244,16.31533533669691],[101.17059752749904,16.31562617844444],[101.17066618472163,16.315733264260523],[101.17095735164855,16.315737704916575],[101.1710057670367,16.315683451028647],[101.1710939704828,16.315808027381866],[101.17114705591757,16.315882650787028],[101.17121124464656,16.315969655836845],[101.17090606090407,16.316185890938545],[101.17071537939056,16.31627203054875],[101.1706863742738,16.316501484473033],[101.17085775281203,16.31664469905001],[101.170971694394,16.316327823617694],[101.17110603981921,16.316256647958834],[101.171535307959,16.316352040768884],[101.17160566336152,16.316401630310107],[101.17171448904587,16.31647366106351],[101.1718073577893,16.316538150215973],[101.1718009669532,16.316563774049353],[101.17173997964427,16.31680824452781],[101.17171128819707,16.316923257004525],[101.17188721622654,16.316946498869626],[101.17199029541138,16.31696011632649],[101.17208554648803,16.316972700281863],[101.17210419219903,16.316980648699698],[101.17210782714918,16.31698219779257],[101.17222906939666,16.317033879163294],[101.17235026655898,16.317085539237635],[101.1723653346777,16.317091963248608],[101.17287156453294,16.31697167150408],[101.17292686810866,16.316958528014787],[101.17297094020937,16.316970573016807],[101.17300482932048,16.31697369629154],[101.17306191109338,16.31698977326721],[101.17307862495156,16.31704079604039],[101.17311872009009,16.317141021147197],[101.17320405991121,16.31735435682744],[101.17325642136014,16.317485253820422],[101.17355265925451,16.31748619982258],[101.17384002509975,16.317312995706153],[101.17396826765953,16.317371776529804],[101.17440192201141,16.31772768117012],[101.17414202431884,16.31775409042042],[101.17382294093359,16.317496337033727],[101.17357777987719,16.317632613116075],[101.1731632379122,16.317621640250916],[101.17296110045828,16.31708135491465],[101.17233637910785,16.317202422319625],[101.17156743190633,16.317007782897484],[101.17166064938735,16.3166735054753],[101.17158542632752,16.3166424328387],[101.17127856768901,16.31698350482942],[101.17132024176883,16.31716778153177],[101.17136990999926,16.31726318621875],[101.1709997434118,16.31728265117478],[101.1710148354678,16.31714401834535],[101.17121189423278,16.317206260201573],[101.17115509925289,16.316969776833524],[101.17151555486379,16.316571239196186],[101.17116178161098,16.31643022582784],[101.17095915938688,16.316794724901307],[101.17081521971446,16.316816379943255],[101.17058418960491,16.316531820660117],[101.1705744393993,16.316294441471065],[101.17093837333677,16.315969112956193],[101.1709069698396,16.315901116673697],[101.17062352632784,16.31590402487802],[101.1704490314399,16.31574239870265],[101.17056576022767,16.315384845197904],[101.17056568542023,16.31538476375146],[101.17049401679549,16.3153079821426],[101.17010939840911,16.315341479032135],[101.17010779351706,16.31533821684802],[101.1700963588557,16.315314938209696],[101.17005788835102,16.314809316986725],[101.17005787995161,16.3148092339542],[101.16993829737436,16.314722736179156],[101.16950644008496,16.31479908885957],[101.16945690770532,16.31476504464173],[101.16942234607927,16.314741262682848],[101.16943242999915,16.314595468914487],[101.16947187922946,16.314099819867472],[101.16941703179371,16.313951419818572],[101.16940701506883,16.313936330027346],[101.16935442799385,16.313876517762658],[101.16912429151019,16.31371138522491],[101.16912425751549,16.313711356663127],[101.16900353022687,16.31371621040783],[101.16875187215196,16.31400500379272],[101.16825804636058,16.313543448237784],[101.16806770178823,16.31323140335948],[101.16806767601395,16.313231356643787],[101.16800321023857,16.313109109879033],[101.1680234998911,16.31281869367464],[101.16810368672107,16.312678397008842],[101.16831733810348,16.312623033870533],[101.16852580549576,16.312771201549726],[101.16861030456003,16.312642521498955],[101.16836141623683,16.31248624284893],[101.16821241292783,16.31224873509643],[101.16813805943765,16.312049379577992],[101.16817540802788,16.31187687406323],[101.16820570612995,16.311738525101223],[101.16807532469933,16.311766804792484],[101.16787575036216,16.312075912639145],[101.16769817032565,16.31208993829183],[101.16759159722542,16.311944419189867],[101.16754654082324,16.311822562976428],[101.16746823958191,16.311280579759092],[101.16699124397027,16.31132485589056],[101.16683981077897,16.311299720050048],[101.16652298610461,16.311283561573994],[101.16652066525562,16.311072536269453]]]}},{"type":"Feature","properties":{"label":"แปลงข้อมูลเปิด 2904","origin":"imported"},"geometry":{"type":"Polygon","coordinates":[[[101.1699663397548,16.314615812012452],[101.16956287687375,16.31468772973612],[101.16957788439794,16.3140854246863],[101.1699663397548,16.314615812012452]]]}},{"type":"Feature","properties":{"label":"แปลงข้อมูลเปิด 2570","origin":"imported"},"geometry":{"type":"Polygon","coordinates":[[[101.16945423507708,16.313720881551834],[101.16960559310144,16.314060557640826],[101.17017308266888,16.31461201443534],[101.17008856195338,16.314689275462626],[101.1699663397548,16.314615812012452],[101.16957788439794,16.3140854246863],[101.16943339188343,16.313754699159993],[101.16945423507708,16.313720881551834]]]}},{"type":"Feature","properties":{"label":"แปลงข้อมูลเปิด 42","origin":"imported"},"geometry":{"type":"Polygon","coordinates":[[[101.16691271050895,16.31514980135904],[101.16656601719227,16.315197424099146],[101.1664531917187,16.31521173784485],[101.16305028923404,16.315643388520943],[101.16300366957027,16.315443200145122],[101.16656343519779,16.31496084698141],[101.16684431092682,16.314920019691126],[101.16691271050895,16.31514980135904]]]}},{"type":"Feature","properties":{"label":"แปลงข้อมูลเปิด 2885","origin":"imported"},"geometry":{"type":"Polygon","coordinates":[[[101.16778760022814,16.31313354280759],[101.1678304468794,16.313275583350677],[101.16789340219876,16.313380875862055],[101.16797815311841,16.313522699448143],[101.1672321647205,16.313662526476328],[101.16705100596756,16.312917319239073],[101.16767695945576,16.31276690142269],[101.16778760022814,16.31313354280759]]]}},{"type":"Feature","properties":{"label":"แปลงข้อมูลเปิด 2880","origin":"imported"},"geometry":{"type":"Polygon","coordinates":[[[101.1705744393993,16.316294441471065],[101.17020838973868,16.31619010946888],[101.17022866215494,16.315676277498866],[101.17066431453324,16.31600623654507],[101.17057440121401,16.316294372296753],[101.17057448366387,16.316294298268602],[101.1705744393993,16.316294441471065]]]}},{"type":"Feature","properties":{"label":"แปลงข้อมูลเปิด 2569","origin":"imported"},"geometry":{"type":"Polygon","coordinates":[[[101.16945423507708,16.313720881551834],[101.16943339188343,16.313754699159993],[101.16917874753314,16.31356050816576],[101.168989825656,16.313570041142267],[101.16874091026898,16.313853520151458],[101.16834423482115,16.313443090837357],[101.16900858232589,16.313082101500953],[101.16945423507708,16.313720881551834]]]}},{"type":"Feature","properties":{"label":"แปลงข้อมูลเปิด 41","origin":"imported"},"geometry":{"type":"Polygon","coordinates":[[[101.1667551123963,16.314712720029046],[101.16684431092682,16.314920019691126],[101.16656343519779,16.31496084698141],[101.16300366957027,16.315443200145122],[101.16296220359689,16.31525497871297],[101.16296223347223,16.315254972986164],[101.16656065561715,16.3147081757131],[101.16674501487904,16.314689253072004],[101.1667551123963,16.314712720029046]]]}},{"type":"Feature","properties":{"label":"แปลงข้อมูลเปิด 2586","origin":"imported"},"geometry":{"type":"Polygon","coordinates":[[[101.17017308266888,16.31461201443534],[101.17058230867825,16.31507944030811],[101.17019548719395,16.315165801830396],[101.17017966389426,16.314851740981016],[101.17008856195338,16.314689275462626],[101.17017308266888,16.31461201443534]]]}},{"type":"Feature","properties":{"label":"แปลงข้อมูลเปิด 210","origin":"imported"},"geometry":{"type":"Polygon","coordinates":[[[101.16341019179569,16.31760474354411],[101.16337025932444,16.317464063389856],[101.16337073820519,16.317407761545123],[101.16520221173862,16.317279330552765],[101.16658785376514,16.317182153465215],[101.16719242562368,16.31714083718316],[101.16721824964075,16.31713907239136],[101.16724007219521,16.317335627985983],[101.16721770947865,16.31733744941229],[101.16659014314551,16.317388527922677],[101.16543416267889,16.317467135597926],[101.16507375222508,16.31749164267392],[101.16507616337474,16.31748765805239],[101.16341019179569,16.31760474354411]]]}},{"type":"Feature","properties":{"label":"แปลงข้อมูลเปิด 2768","origin":"imported"},"geometry":{"type":"Polygon","coordinates":[[[101.1700230330663,16.31692573384897],[101.16974471875707,16.318454329081245],[101.1697446793775,16.318454321354725],[101.16956629021878,16.318428603223374],[101.16956626116927,16.318428599004545],[101.16958573542426,16.31832807810142],[101.16962823634618,16.318108701003137],[101.16968805315756,16.317799939607028],[101.1697659304527,16.317397971827518],[101.16985321683708,16.31694745902434],[101.16986617676979,16.316880501033832],[101.1700230330663,16.31692573384897]]]}},{"type":"Feature","properties":{"label":"แปลงข้อมูลเปิด 2761","origin":"imported"},"geometry":{"type":"Polygon","coordinates":[[[101.16896150164538,16.312966410084858],[101.16900858232589,16.313082101500953],[101.16834423482115,16.313443090837357],[101.16824975209808,16.31331019781132],[101.16896150164538,16.312966410084858]]]}},{"type":"Feature","properties":{"label":"แปลงข้อมูลเปิด 3813","origin":"imported"},"geometry":{"type":"Polygon","coordinates":[[[101.1710063305321,16.316854764854625],[101.17103208437389,16.316985561198912],[101.17048832554262,16.31680609969026],[101.17042466730061,16.316969420181476],[101.16940064031792,16.316724386926374],[101.16940059904786,16.31672437741225],[101.16940080296978,16.316723695007635],[101.16941233097994,16.316685297639737],[101.16941555262856,16.316674554860622],[101.17027861850339,16.316895904752542],[101.17038988998063,16.316727909172876],[101.17034721364897,16.316707267245935],[101.17040791737014,16.316606932402355],[101.1705744393993,16.316294441471065],[101.17058418960491,16.316531820660117],[101.17081521971446,16.316816379943255],[101.17095915938688,16.316794724901307],[101.1710063305321,16.316854764854625]]]}},{"type":"Feature","properties":{"label":"แปลงข้อมูลเปิด 2553","origin":"imported"},"geometry":{"type":"Polygon","coordinates":[[[101.16824975209808,16.31331019781132],[101.16822959831315,16.313269574347842],[101.16894276853692,16.3129213378997],[101.16896150164538,16.312966410084858],[101.16824975209808,16.31331019781132]]]}},{"type":"Feature","properties":{"label":"แปลงข้อมูลเปิด 2554","origin":"imported"},"geometry":{"type":"Polygon","coordinates":[[[101.16822959831315,16.313269574347842],[101.16820962347445,16.313229313141388],[101.16892403544811,16.31287626661503],[101.16894276853692,16.3129213378997],[101.16822959831315,16.313269574347842]]]}},{"type":"Feature","properties":{"label":"แปลงข้อมูลเปิด 57","origin":"imported"},"geometry":{"type":"Polygon","coordinates":[[[101.16661710176732,16.314450296400622],[101.16664104537195,16.314458518962315],[101.16669782410534,16.31447801782547],[101.16669790392743,16.314478045014035],[101.16669797811689,16.314478070453458],[101.16669791177881,16.314478078361777],[101.16655830807605,16.314494859557655],[101.16290877034433,16.315023434709605],[101.16289456424306,16.314918272751417],[101.16288113210474,16.314846440872607],[101.16655498340612,16.314192627848282],[101.16661710176732,16.314450296400622]]]}},{"type":"Feature","properties":{"label":"แปลงข้อมูลเปิด 40","origin":"imported"},"geometry":{"type":"Polygon","coordinates":[[[101.16674501487904,16.314689253072004],[101.16656065561715,16.3147081757131],[101.16296223347223,16.315254972986164],[101.16296220359689,16.31525497871297],[101.16294879372118,16.31519250565335],[101.16294823779361,16.315189931943042],[101.16294583557729,16.315178802317696],[101.16290877034433,16.315023434709605],[101.16655830807605,16.314494859557655],[101.16669791177881,16.314478078361777],[101.16674501487904,16.314689253072004]]]}},{"type":"Feature","properties":{"label":"แปลงข้อมูลเปิด 2779","origin":"imported"},"geometry":{"type":"Polygon","coordinates":[[[101.1668657496282,16.312138034244427],[101.16705100596756,16.312917319239073],[101.1672321647205,16.313662526476328],[101.16723208722686,16.31366254082355],[101.16655124731605,16.313853413302784],[101.16651171802071,16.313861668124986],[101.16648251191054,16.313844340170192],[101.16643831796327,16.31381806803581],[101.16637985582689,16.313442123278815],[101.16633101311514,16.31312799262438],[101.16627056405348,16.312489833082942],[101.16625705661217,16.312428167208427],[101.16625709011946,16.31242815150582],[101.16686573524868,16.312138002770595],[101.1668657496282,16.312138034244427]]]}},{"type":"Feature","properties":{"label":"แปลงข้อมูลเปิด 3810","origin":"imported"},"geometry":{"type":"Polygon","coordinates":[[[101.16651325284413,16.31039853515285],[101.16740582627948,16.31098917535526],[101.16781150446656,16.31113714991731],[101.16800161458907,16.311228129377696],[101.16826113752171,16.31134346824139],[101.16839514057425,16.311479259665134],[101.16849980040666,16.311585316485125],[101.1685291504405,16.31161505813949],[101.16866315386517,16.311750849345128],[101.16875578196884,16.312022359356142],[101.16884553573303,16.312302734706755],[101.16896901979231,16.312528350552984],[101.16908074285215,16.312747554109578],[101.16915851607008,16.312880300325403],[101.16921270256665,16.312994989041805],[101.16928605748093,16.313136156598322],[101.16934879338045,16.313236670610383],[101.16942907125147,16.313404475244457],[101.16951134480247,16.313550789368712],[101.16962120052182,16.313704651344576],[101.1699273166136,16.31414012817753],[101.17029308386935,16.31453571144629],[101.17077541361424,16.315050205162642],[101.17117915939586,16.315580499325865],[101.17160321597295,16.3161257355919],[101.17175524362521,16.316279914987035],[101.17194623542703,16.316397890100415],[101.17213704576847,16.31654528096727],[101.1723307194366,16.31663349237292],[101.17280888876117,16.316793455869163],[101.17315558770756,16.31684586771661],[101.17364204968993,16.31698003669503],[101.173787617148,16.317025109055486],[101.17396258548847,16.31713454220138],[101.17406925681166,16.31719462830623],[101.17396829243845,16.31737173290846],[101.17396826765953,16.317371776529804],[101.17384002509975,16.317312995706153],[101.1737671870659,16.31725673609961],[101.17364428910457,16.317161807660096],[101.17357145398594,16.317105547942784],[101.17354231975676,16.317083043507246],[101.17306191109338,16.31698977326721],[101.17300482932048,16.31697369629154],[101.17297094020937,16.316970573016807],[101.17292686810866,16.316958528014787],[101.17231259604402,16.316801631898237],[101.1718073577893,16.316538150215973],[101.17171448904587,16.31647366106351],[101.17160566336152,16.316401630310107],[101.171535307959,16.316352040768884],[101.17126935498018,16.316038242082534],[101.17121124464656,16.315969655836845],[101.17114705591757,16.315882650787028],[101.1710939704828,16.315808027381866],[101.1710057670367,16.315683451028647],[101.17076559232244,16.31533533669691],[101.17071292073787,16.315254009712458],[101.17063040887417,16.315136905022218],[101.17058230867825,16.31507944030811],[101.17017308266888,16.31461201443534],[101.16960559310144,16.314060557640826],[101.16945423507708,16.313720881551834],[101.16900858232589,16.313082101500953],[101.16896150164538,16.312966410084858],[101.16894276853692,16.3129213378997],[101.16892403544811,16.31287626661503],[101.16883728398808,16.312666552239147],[101.16871361683637,16.312354710462234],[101.16868088943804,16.312281473615915],[101.16861908948071,16.31212212773061],[101.1683916762606,16.311646267590728],[101.16819954634039,16.311464566899875],[101.16808596096638,16.31140801030541],[101.1678312005301,16.31128107604136],[101.16749189009474,16.311112210897196],[101.16731945127214,16.311066419033878],[101.16716600217293,16.310941530596484],[101.16694947175488,16.310783691910974],[101.16675962329282,16.31065790624404],[101.16659544684165,16.31054576776126],[101.16651436065011,16.310499268556843],[101.16651325284413,16.31039853515285]]]}},{"type":"Feature","properties":{"label":"แปลงข้อมูลเปิด 2801","origin":"imported"},"geometry":{"type":"Polygon","coordinates":[[[101.17009706262037,16.316944953210495],[101.1703461037815,16.317009607910723],[101.17034577771618,16.317012534875253],[101.17034500138297,16.317019513088066],[101.17017554704644,16.318542137119064],[101.16974471875707,16.318454329081245],[101.1700230330663,16.31692573384897],[101.17009706262037,16.316944953210495]]]}},{"type":"Feature","properties":{"label":"แปลงข้อมูลเปิด 2905","origin":"imported"},"geometry":{"type":"Polygon","coordinates":[[[101.16883728398808,16.312666552239147],[101.16892403544811,16.31287626661503],[101.16820962347445,16.313229313141388],[101.16813665701106,16.313040250186734],[101.16818830304678,16.312849404789848],[101.16828027608997,16.3127574851609],[101.16845256627028,16.312901543997842],[101.16860112205646,16.312906708026652],[101.16874290438717,16.31280089917186],[101.16877089915053,16.31268917728569],[101.16883728398808,16.312666552239147]]]}},{"type":"Feature","properties":{"label":"แปลงข้อมูลเปิด 2574","origin":"imported"},"geometry":{"type":"Polygon","coordinates":[[[101.17076559232244,16.31533533669691],[101.1710057670367,16.315683451028647],[101.17095735164855,16.315737704916575],[101.17066618472163,16.315733264260523],[101.17059752749904,16.31562617844444],[101.17076559232244,16.31533533669691]]]}},{"type":"Feature","properties":{"label":"แปลงข้อมูลเปิด 2707","origin":"imported"},"geometry":{"type":"Polygon","coordinates":[[[101.16828554684339,16.319470534111147],[101.16812507330987,16.31946886181526],[101.16773490903131,16.319464789202684],[101.16772896643296,16.319464727343913],[101.16768142801904,16.319459094430293],[101.16765977833907,16.319456528604007],[101.1676516211631,16.319418137333265],[101.16750814347513,16.318742857935298],[101.16745840980482,16.318430866638092],[101.16825199801825,16.318376648420408],[101.16828554684339,16.319470534111147]]]}},{"type":"Feature","properties":{"label":"แปลงข้อมูลเปิด 2906","origin":"imported"},"geometry":{"type":"Polygon","coordinates":[[[101.170971694394,16.316327823617694],[101.17085775281203,16.31664469905001],[101.1706863742738,16.316501484473033],[101.17071537939056,16.31627203054875],[101.17090606090407,16.316185890938545],[101.17094429880943,16.31626856963247],[101.170971694394,16.316327823617694]]]}},{"type":"Feature","properties":{"label":"แปลงข้อมูลเปิด 2760","origin":"imported"},"geometry":{"type":"Polygon","coordinates":[[[101.16942907125147,16.313404475244457],[101.16934879338045,16.313236670610383],[101.16954419146042,16.313119072325286],[101.16964938472552,16.313276812903776],[101.16942907125147,16.313404475244457]]]}},{"type":"Feature","properties":{"label":"แปลงข้อมูลเปิด 5","origin":"imported"},"geometry":{"type":"Polygon","coordinates":[[[101.16358585485607,16.318994588742463],[101.16358584784115,16.31899454635133],[101.16358577680406,16.31899455250005],[101.16358522690426,16.318990826810317],[101.16352754282393,16.318645866502905],[101.16352223957209,16.318614160312013],[101.16348614976506,16.318240311637975],[101.16344926071278,16.317896647874093],[101.16342150532971,16.317756703984546],[101.16341019179569,16.31760474354411],[101.16507616337474,16.31748765805239],[101.16507375222508,16.31749164267392],[101.16543416267889,16.317467135597926],[101.16659014314551,16.317388527922677],[101.16721770947865,16.31733744941229],[101.16724007219521,16.317335627985983],[101.1672953603264,16.317754196782115],[101.16742199940096,16.31871284277443],[101.16742196324546,16.31871287295997],[101.16742588673898,16.31872949983493],[101.16739725606791,16.318733161853828],[101.16739718593686,16.318733165284144],[101.16739623124076,16.318733213933136],[101.16660538015209,16.318773297904464],[101.16419123214875,16.318950226553763],[101.16358585485607,16.318994588742463]]]}},{"type":"Feature","properties":{"label":"แปลงข้อมูลเปิด 58","origin":"imported"},"geometry":{"type":"Polygon","coordinates":[[[101.16652712868192,16.314070732289792],[101.1665270876013,16.314070739938945],[101.1628389404266,16.314721686483526],[101.16281610096526,16.31463330542151],[101.16647059653532,16.313935427102958],[101.16647065441441,16.313935415667622],[101.16652712868192,16.314070732289792]]]}},{"type":"Feature","properties":{"label":"แปลงข้อมูลเปิด 240","origin":"imported"},"geometry":{"type":"Polygon","coordinates":[[[101.16655498340612,16.314192627848282],[101.16288113210474,16.314846440872607],[101.1628389404266,16.314721686483526],[101.1665270876013,16.314070739938945],[101.16652712868192,16.314070732289792],[101.16655498340612,16.314192627848282]]]}},{"type":"Feature","properties":{"label":"แปลงข้อมูลเปิด 3040","origin":"imported"},"geometry":{"type":"Polygon","coordinates":[[[101.17052763562793,16.316899645160586],[101.17034306674263,16.31857345770064],[101.17017554704644,16.318542137119064],[101.17034500138297,16.317019513088066],[101.17035688122483,16.317016873932605],[101.17037790358,16.31701220468259],[101.17042475846017,16.317001797627224],[101.17048603223054,16.31694095548887],[101.17052763562793,16.316899645160586]]]}},{"type":"Feature","properties":{"label":"แปลงข้อมูลเปิด 2589","origin":"imported"},"geometry":{"type":"Polygon","coordinates":[[[101.16810368672107,16.312678397008842],[101.1680234998911,16.31281869367464],[101.16800321023857,16.313109109879033],[101.16806767601395,16.313231356643787],[101.16796948859586,16.31327626396831],[101.16781120759298,16.312850939145942],[101.16772436428275,16.31241990556821],[101.16821241292783,16.31224873509643],[101.16836141623683,16.31248624284893],[101.16861030456003,16.312642521498955],[101.16852580549576,16.312771201549726],[101.16831733810348,16.312623033870533],[101.16810368672107,16.312678397008842]]]}},{"type":"Feature","properties":{"label":"แปลงข้อมูลเปิด 2566","origin":"imported"},"geometry":{"type":"Polygon","coordinates":[[[101.17090606090407,16.316185890938545],[101.17121124464656,16.315969655836845],[101.17126935498018,16.316038242082534],[101.17094429880943,16.31626856963247],[101.17090606090407,16.316185890938545]]]}},{"type":"Feature","properties":{"label":"แปลงข้อมูลเปิด 3039","origin":"imported"},"geometry":{"type":"Polygon","coordinates":[[[101.17068284095666,16.316965096816432],[101.1705022135249,16.318603211776452],[101.17034306674263,16.31857345770064],[101.17052763562793,16.316899645160586],[101.17068284095666,16.316965096816432]]]}},{"type":"Feature","properties":{"label":"แปลงข้อมูลเปิด 241","origin":"imported"},"geometry":{"type":"Polygon","coordinates":[[[101.16647065441441,16.313935415667622],[101.16647059653532,16.313935427102958],[101.16281610096526,16.31463330542151],[101.16279267462843,16.314491479321983],[101.16643831796327,16.31381806803581],[101.16647065441441,16.313935415667622]]]}},{"type":"Feature","properties":{"label":"แปลงข้อมูลเปิด 59","origin":"imported"},"geometry":{"type":"Polygon","coordinates":[[[101.16643831796327,16.31381806803581],[101.16279267462843,16.314491479321983],[101.16277490482034,16.31433483350522],[101.1627437650379,16.31421151353727],[101.16272430866252,16.31413445983529],[101.16272722430921,16.31413364667045],[101.16626433149317,16.313147073863334],[101.16633101311514,16.31312799262438],[101.16637985582689,16.313442123278815],[101.16643831796327,16.31381806803581]]]}},{"type":"Feature","properties":{"label":"แปลงข้อมูลเปิด 2834","origin":"imported"},"geometry":{"type":"Polygon","coordinates":[[[101.16744416225823,16.312015974316232],[101.16767693615992,16.31276682486709],[101.16767695945576,16.31276690142269],[101.16705100596756,16.312917319239073],[101.1668657496282,16.312138034244427],[101.16723796311395,16.311923149280922],[101.16744416225823,16.312015974316232]]]}},{"type":"Feature","properties":{"label":"แปลงข้อมูลเปิด 2705","origin":"imported"},"geometry":{"type":"Polygon","coordinates":[[[101.17094429880943,16.31626856963247],[101.17126935498018,16.316038242082534],[101.171535307959,16.316352040768884],[101.17110603981921,16.316256647958834],[101.170971694394,16.316327823617694],[101.17094429880943,16.31626856963247]]]}},{"type":"Feature","properties":{"label":"แปลงข้อมูลเปิด 3038","origin":"imported"},"geometry":{"type":"Polygon","coordinates":[[[101.17069787817549,16.316971438152617],[101.17084260496435,16.317015060362635],[101.17066413913676,16.31863348556222],[101.1705022135249,16.318603211776452],[101.17068284095666,16.316965096816432],[101.17069787817549,16.316971438152617]]]}},{"type":"Feature","properties":{"label":"แปลงข้อมูลเปิด 2903","origin":"imported"},"geometry":{"type":"Polygon","coordinates":[[[101.16871361683637,16.312354710462234],[101.16883728398808,16.312666552239147],[101.16877089915053,16.31268917728569],[101.16852641550857,16.31242967143631],[101.16871361683637,16.312354710462234]]]}},{"type":"Feature","properties":{"label":"แปลงข้อมูลเปิด 2587","origin":"imported"},"geometry":{"type":"Polygon","coordinates":[[[101.1710148354678,16.31714401834535],[101.17103208437389,16.316985561198912],[101.1710063305321,16.316854764854625],[101.17095915938688,16.316794724901307],[101.17116178161098,16.31643022582784],[101.17151555486379,16.316571239196186],[101.17115509925289,16.316969776833524],[101.17121189423278,16.317206260201573],[101.1710148354678,16.31714401834535]]]}},{"type":"Feature","properties":{"label":"แปลงข้อมูลเปิด 2902","origin":"imported"},"geometry":{"type":"Polygon","coordinates":[[[101.16868088943804,16.312281473615915],[101.16871361683637,16.312354710462234],[101.16852641550857,16.31242967143631],[101.16846105790526,16.31236586565499],[101.16859900321444,16.31233338822293],[101.16868088943804,16.312281473615915]]]}},{"type":"Feature","properties":{"label":"แปลงข้อมูลเปิด 3041","origin":"imported"},"geometry":{"type":"Polygon","coordinates":[[[101.17092006314144,16.317038407340707],[101.17091539961842,16.317245161719338],[101.1709384907649,16.317284216910487],[101.17098386687493,16.31733511056198],[101.1708452135261,16.318667339730478],[101.17066413913676,16.31863348556222],[101.17084260496435,16.317015060362635],[101.17092006314144,16.317038407340707]]]}},{"type":"Feature","properties":{"label":"แปลงข้อมูลเปิด 556","origin":"imported"},"geometry":{"type":"Polygon","coordinates":[[[101.16633101311514,16.31312799262438],[101.16626433149317,16.313147073863334],[101.1661849227636,16.312592378624498],[101.16613955776427,16.31261008294019],[101.16607402107239,16.312472423311075],[101.16595647686887,16.312079418649205],[101.16583008513747,16.311864028776426],[101.16580145308608,16.31181523514545],[101.16584701994019,16.3117931831683],[101.16625705661217,16.312428167208427],[101.16627056405348,16.312489833082942],[101.16633101311514,16.31312799262438]]]}},{"type":"Feature","properties":{"label":"แปลงข้อมูลเปิด 2901","origin":"imported"},"geometry":{"type":"Polygon","coordinates":[[[101.16861908948071,16.31212212773061],[101.16868088943804,16.312281473615915],[101.16859900321444,16.31233338822293],[101.16852069568704,16.312172956872093],[101.16861908948071,16.31212212773061]]]}},{"type":"Feature","properties":{"label":"แปลงข้อมูลเปิด 6","origin":"imported"},"geometry":{"type":"Polygon","coordinates":[[[101.16626433149317,16.313147073863334],[101.16272722430921,16.31413364667045],[101.16272430866252,16.31413445983529],[101.16271163071046,16.31406023956391],[101.16267201167835,16.31396330187447],[101.16613955776427,16.31261008294019],[101.1661849227636,16.312592378624498],[101.16626433149317,16.313147073863334]]]}},{"type":"Feature","properties":{"label":"แปลงข้อมูลเปิด 2794","origin":"imported"},"geometry":{"type":"Polygon","coordinates":[[[101.16747009466401,16.3118705671431],[101.16754654082324,16.311822562976428],[101.16759159722542,16.311944419189867],[101.16769817032565,16.31208993829183],[101.16787575036216,16.312075912639145],[101.16807532469933,16.311766804792484],[101.16820570612995,16.311738525101223],[101.16817540802788,16.31187687406323],[101.16813805943765,16.312049379577992],[101.16821241292783,16.31224873509643],[101.16772436428275,16.31241990556821],[101.16747009466401,16.3118705671431]]]}},{"type":"Feature","properties":{"label":"แปลงข้อมูลเปิด 2961","origin":"imported"},"geometry":{"type":"Polygon","coordinates":[[[101.17194444736751,16.313332820253294],[101.17194448354216,16.313332876799564],[101.17029308386935,16.31453571144629],[101.1699273166136,16.31414012817753],[101.171713261637,16.312949337679978],[101.17194444736751,16.313332820253294]]]}},{"type":"Feature","properties":{"label":"แปลงข้อมูลเปิด 2813","origin":"imported"},"geometry":{"type":"Polygon","coordinates":[[[101.171713261637,16.312949337679978],[101.1699273166136,16.31414012817753],[101.16962120052182,16.313704651344576],[101.17134764584506,16.312647113907307],[101.17149551941505,16.31255631236337],[101.171713261637,16.312949337679978]]]}},{"type":"Feature","properties":{"label":"แปลงข้อมูลเปิด 2960","origin":"imported"},"geometry":{"type":"Polygon","coordinates":[[[101.17222508672495,16.313805881885553],[101.17222514283323,16.31380596442721],[101.17077541361424,16.315050205162642],[101.17029308386935,16.31453571144629],[101.17194448354216,16.313332876799564],[101.17222508672495,16.313805881885553]]]}},{"type":"Feature","properties":{"label":"แปลงข้อมูลเปิด 2916","origin":"imported"},"geometry":{"type":"Polygon","coordinates":[[[101.1683916762606,16.311646267590728],[101.16861908948071,16.31212212773061],[101.16852069568704,16.312172956872093],[101.16859900321444,16.31233338822293],[101.16846105790526,16.31236586565499],[101.16832852630026,16.312179810247766],[101.1682909412494,16.312011002998],[101.1683759530163,16.311734451939188],[101.16836074149258,16.311669057080554],[101.1683916762606,16.311646267590728]]]}},{"type":"Feature","properties":{"label":"แปลงข้อมูลเปิด 162","origin":"imported"},"geometry":{"type":"Polygon","coordinates":[[[101.167567386002,16.319329202082972],[101.16755338953267,16.319330129077578],[101.167538943375,16.319331085984842],[101.16661220944347,16.319395444570514],[101.16375414841346,16.319672595774705],[101.16372987944324,16.31955828560981],[101.16361619969986,16.31910535562123],[101.1636161838685,16.319105277181702],[101.16358577680406,16.31899455250005],[101.16358584784115,16.31899454635133],[101.16358585485607,16.318994588742463],[101.16419123214875,16.318950226553763],[101.16660538015209,16.318773297904464],[101.16739623124076,16.318733213933136],[101.16739718593686,16.318733165284144],[101.16739725606791,16.318733161853828],[101.16742588673898,16.31872949983493],[101.167567386002,16.319329202082972]]]}},{"type":"Feature","properties":{"label":"แปลงข้อมูลเปิด 2985","origin":"imported"},"geometry":{"type":"Polygon","coordinates":[[[101.16962120052182,16.313704651344576],[101.16951134480247,16.313550789368712],[101.17124004395993,16.312442130654695],[101.17134764584506,16.312647113907307],[101.16962120052182,16.313704651344576]]]}},{"type":"Feature","properties":{"label":"แปลงข้อมูลเปิด 3804","origin":"imported"},"geometry":{"type":"Polygon","coordinates":[[[101.17345040002883,16.31788500673729],[101.17309033792782,16.317886739467227],[101.17257537681931,16.317625097495927],[101.17165864738621,16.31748011837295],[101.17136346254668,16.317427917074433],[101.17098386687493,16.31733511056198],[101.1709384907649,16.317284216910487],[101.17091539961842,16.317245161719338],[101.17092006314144,16.317038407340707],[101.17084260496435,16.317015060362635],[101.17069787817549,16.316971438152617],[101.17068284095666,16.316965096816432],[101.17052763562793,16.316899645160586],[101.17048603223054,16.31694095548887],[101.17042475846017,16.317001797627224],[101.17037790358,16.31701220468259],[101.17035688122483,16.317016873932605],[101.17034500138297,16.317019513088066],[101.17034577771618,16.317012534875253],[101.1703461037815,16.317009607910723],[101.17009706262037,16.316944953210495],[101.1700230330663,16.31692573384897],[101.16986617676979,16.316880501033832],[101.16971547273606,16.31683958668736],[101.16955248329235,16.31682147543413],[101.16938967996104,16.316803271792892],[101.16940059904786,16.31672437741225],[101.16940064031792,16.316724386926374],[101.17042466730061,16.316969420181476],[101.17048832554262,16.31680609969026],[101.17103208437389,16.316985561198912],[101.1710148354678,16.31714401834535],[101.1709997434118,16.31728265117478],[101.17136990999926,16.31726318621875],[101.17256547781834,16.317566448889984],[101.17318334313543,16.317845747096854],[101.173446275436,16.317824775527566],[101.17345040002883,16.31788500673729]]]}},{"type":"Feature","properties":{"label":"แปลงข้อมูลเปิด 2932","origin":"imported"},"geometry":{"type":"Polygon","coordinates":[[[101.16625709011946,16.31242815150582],[101.16652838139926,16.311774121607066],[101.16698594426227,16.311813202689137],[101.16701111179425,16.31181535222958],[101.16723796311395,16.311923149280922],[101.1668657496282,16.312138034244427],[101.16686573524868,16.312138002770595],[101.16625709011946,16.31242815150582]]]}},{"type":"Feature","properties":{"label":"แปลงข้อมูลเปิด 2986","origin":"imported"},"geometry":{"type":"Polygon","coordinates":[[[101.17131112330247,16.312276953978902],[101.17135948031708,16.31236065618863],[101.17135951617271,16.312360683827443],[101.17124004395993,16.312442130654695],[101.16951134480247,16.313550789368712],[101.16942907125147,16.313404475244457],[101.16964938472552,16.313276812903776],[101.17123178330156,16.3122512718481],[101.17127642734644,16.312216940211677],[101.17131112330247,16.312276953978902]]]}},{"type":"Feature","properties":{"label":"แปลงข้อมูลเปิด 2758","origin":"imported"},"geometry":{"type":"Polygon","coordinates":[[[101.17254059782813,16.314270639193122],[101.17117915939586,16.315580499325865],[101.17077541361424,16.315050205162642],[101.17222514283323,16.31380596442721],[101.1725405378694,16.31427063167873],[101.17254057119698,16.31427059971466],[101.17254059782813,16.314270639193122]]]}},{"type":"Feature","properties":{"label":"แปลงข้อมูลเปิด 2886","origin":"imported"},"geometry":{"type":"Polygon","coordinates":[[[101.17136346254668,16.317427917074433],[101.17165864738621,16.31748011837295],[101.17158032239598,16.318430544540412],[101.17155670802734,16.31880775612699],[101.17155668077898,16.318807745565664],[101.17084528763789,16.318667357941266],[101.1708452135261,16.318667339730478],[101.17098386687493,16.31733511056198],[101.17136346254668,16.317427917074433]]]}},{"type":"Feature","properties":{"label":"แปลงข้อมูลเปิด 2573","origin":"imported"},"geometry":{"type":"Polygon","coordinates":[[[101.1711664540957,16.31205311331259],[101.17116650545604,16.312053189579167],[101.17113159242032,16.312088060819395],[101.16954419146042,16.313119072325286],[101.16934879338045,16.313236670610383],[101.16928605748093,16.313136156598322],[101.17111774370451,16.311937164579998],[101.1711664540957,16.31205311331259]]]}},{"type":"Feature","properties":{"label":"แปลงข้อมูลเปิด 3024","origin":"imported"},"geometry":{"type":"Polygon","coordinates":[[[101.17196171081716,16.316647879435248],[101.17188721622654,16.316946498869626],[101.17171128819707,16.316923257004525],[101.17173997964427,16.31680824452781],[101.1718009669532,16.316563774049353],[101.17196171081716,16.316647879435248]]]}},{"type":"Feature","properties":{"label":"แปลงข้อมูลเปิด 2815","origin":"imported"},"geometry":{"type":"Polygon","coordinates":[[[101.17123178330156,16.3122512718481],[101.16964938472552,16.313276812903776],[101.16954419146042,16.313119072325286],[101.17113159242032,16.312088060819395],[101.17123178330156,16.3122512718481]]]}},{"type":"Feature","properties":{"label":"แปลงข้อมูลเปิด 2812","origin":"imported"},"geometry":{"type":"Polygon","coordinates":[[[101.17254059782813,16.314270639193122],[101.17267128250813,16.314500213930447],[101.17160321597295,16.3161257355919],[101.17117915939586,16.315580499325865],[101.17254059782813,16.314270639193122]]]}},{"type":"Feature","properties":{"label":"แปลงข้อมูลเปิด 61","origin":"imported"},"geometry":{"type":"Polygon","coordinates":[[[101.16613955776427,16.31261008294019],[101.16267201167835,16.31396330187447],[101.16264567785146,16.31386654886736],[101.16262771252391,16.313800541956436],[101.16607402107239,16.312472423311075],[101.16613955776427,16.31261008294019]]]}},{"type":"Feature","properties":{"label":"แปลงข้อมูลเปิด 186","origin":"imported"},"geometry":{"type":"Polygon","coordinates":[[[101.16758825096032,16.319509827515063],[101.16757165439175,16.319511256429095],[101.16564625856057,16.319671620890205],[101.16378014568278,16.319833237045902],[101.1637791549457,16.31982711264989],[101.16375433614637,16.31967375842141],[101.16375414841346,16.319672595774705],[101.16661220944347,16.319395444570514],[101.167538943375,16.319331085984842],[101.16755338953267,16.319330129077578],[101.167567386002,16.319329202082972],[101.16757539647607,16.31939854581679],[101.16758825096032,16.319509827515063]]]}},{"type":"Feature","properties":{"label":"แปลงข้อมูลเปิด 2987","origin":"imported"},"geometry":{"type":"Polygon","coordinates":[[[101.17111774370451,16.311937164579998],[101.16928605748093,16.313136156598322],[101.16921270256665,16.312994989041805],[101.1710503859448,16.311807798599624],[101.17111774370451,16.311937164579998]]]}},{"type":"Feature","properties":{"label":"แปลงข้อมูลเปิด 204","origin":"imported"},"geometry":{"type":"Polygon","coordinates":[[[101.16652838139926,16.311774121607066],[101.16625709011946,16.31242815150582],[101.16625705661217,16.312428167208427],[101.16584701994019,16.3117931831683],[101.16607248273648,16.311651727239877],[101.16652838139926,16.311774121607066]]]}},{"type":"Feature","properties":{"label":"แปลงข้อมูลเปิด 2762","origin":"imported"},"geometry":{"type":"Polygon","coordinates":[[[101.16796138042628,16.311519199330252],[101.16804977687812,16.31163124345123],[101.16798178780476,16.311685662324283],[101.16789331222344,16.311834290836394],[101.16786160349636,16.31165644178221],[101.16785425965124,16.311608346110397],[101.16796138042628,16.311519199330252]]]}},{"type":"Feature","properties":{"label":"แปลงข้อมูลเปิด 3020","origin":"imported"},"geometry":{"type":"Polygon","coordinates":[[[101.17205589671543,16.316697159545367],[101.17199029541138,16.31696011632649],[101.17188721622654,16.316946498869626],[101.17196171081716,16.316647879435248],[101.17205589671543,16.316697159545367]]]}},{"type":"Feature","properties":{"label":"แปลงข้อมูลเปิด 2816","origin":"imported"},"geometry":{"type":"Polygon","coordinates":[[[101.17105036109557,16.31180775097138],[101.1710503859448,16.311807798599624],[101.16921270256665,16.312994989041805],[101.16915851607008,16.312880300325403],[101.17097017366507,16.31167671892615],[101.17105036109557,16.31180775097138]]]}}]}